{
  "type": "FeatureCollection",
  "features": [
    {
      "type": "Feature",
      "properties": {
        "norad_id": 24876,
        "name": "GPS BIIR-2  (PRN 13)",
        "group": "gnss",
        "lat": 20.650894575287307,
        "lon": 120.91320235372515,
        "alt_km": 19960.98981865629,
        "timestamp": "2025-12-05T18:53:13.524259+00:00",
        "meta_object_name": "GPS BIIR-2  (PRN 13)",
        "meta_object_id": "1997-035A",
        "meta_epoch": "2025-12-05T06:05:41.226432",
        "meta_mean_motion": 2.00563469,
        "meta_eccentricity": 0.00966975,
        "meta_inclination": 55.8916,
        "meta_ra_of_asc_node": 106.1617,
        "meta_arg_of_pericenter": 57.0234,
        "meta_mean_anomaly": 303.8648,
        "meta_ephemeris_type": 0,
        "meta_classification_type": "U",
        "meta_norad_cat_id": 24876,
        "meta_element_set_no": 999,
        "meta_rev_at_epoch": 20806,
        "meta_bstar": 0,
        "meta_mean_motion_dot": 4e-08,
        "meta_mean_motion_ddot": 0,
        "tle_line1": "1 24876U 97035A   25339.25394938  .00000004  00000+0  00000+0 0  9998",
        "tle_line2": "2 24876  55.8916 106.1617 0096697  57.0234 303.8648  2.00563469208066"
      },
      "geometry": {
        "type": "Point",
        "coordinates": [
          120.91320235372515,
          20.650894575287307
        ]
      }
    },
    {
      "type": "Feature",
      "properties": {
        "norad_id": 26360,
        "name": "GPS BIIR-4  (PRN 20)",
        "group": "gnss",
        "lat": 46.799597488718426,
        "lon": 159.0274874962914,
        "alt_km": 20233.765568160332,
        "timestamp": "2025-12-05T18:53:13.524303+00:00",
        "meta_object_name": "GPS BIIR-4  (PRN 20)",
        "meta_object_id": "2000-025A",
        "meta_epoch": "2025-12-05T03:00:42.740352",
        "meta_mean_motion": 2.00568182,
        "meta_eccentricity": 0.00388084,
        "meta_inclination": 55.0407,
        "meta_ra_of_asc_node": 27.146,
        "meta_arg_of_pericenter": 241.2501,
        "meta_mean_anomaly": 118.7163,
        "meta_ephemeris_type": 0,
        "meta_classification_type": "U",
        "meta_norad_cat_id": 26360,
        "meta_element_set_no": 999,
        "meta_rev_at_epoch": 18738,
        "meta_bstar": 0,
        "meta_mean_motion_dot": -7.4e-07,
        "meta_mean_motion_ddot": 0,
        "tle_line1": "1 26360U 00025A   25339.12549468 -.00000074  00000+0  00000+0 0  9995",
        "tle_line2": "2 26360  55.0407  27.1460 0038808 241.2501 118.7163  2.00568182187388"
      },
      "geometry": {
        "type": "Point",
        "coordinates": [
          159.0274874962914,
          46.799597488718426
        ]
      }
    },
    {
      "type": "Feature",
      "properties": {
        "norad_id": 26407,
        "name": "GPS BIIR-5  (PRN 22)",
        "group": "gnss",
        "lat": -33.57595484575632,
        "lon": -164.95415814494658,
        "alt_km": 19863.02453510802,
        "timestamp": "2025-12-05T18:53:13.524322+00:00",
        "meta_object_name": "GPS BIIR-5  (PRN 22)",
        "meta_object_id": "2000-040A",
        "meta_epoch": "2025-12-05T02:25:59.416032",
        "meta_mean_motion": 2.00567737,
        "meta_eccentricity": 0.01264283,
        "meta_inclination": 54.8927,
        "meta_ra_of_asc_node": 222.8729,
        "meta_arg_of_pericenter": 301.6688,
        "meta_mean_anomaly": 240.4646,
        "meta_ephemeris_type": 0,
        "meta_classification_type": "U",
        "meta_norad_cat_id": 26407,
        "meta_element_set_no": 999,
        "meta_rev_at_epoch": 18605,
        "meta_bstar": 0,
        "meta_mean_motion_dot": 5.6e-07,
        "meta_mean_motion_ddot": 0,
        "tle_line1": "1 26407U 00040A   25339.10138213  .00000056  00000+0  00000+0 0  9993",
        "tle_line2": "2 26407  54.8927 222.8729 0126428 301.6688 240.4646  2.00567737186056"
      },
      "geometry": {
        "type": "Point",
        "coordinates": [
          -164.95415814494658,
          -33.57595484575632
        ]
      }
    },
    {
      "type": "Feature",
      "properties": {
        "norad_id": 27663,
        "name": "GPS BIIR-8  (PRN 16)",
        "group": "gnss",
        "lat": 54.73170965297973,
        "lon": -40.33397781943342,
        "alt_km": 19883.596777762545,
        "timestamp": "2025-12-05T18:53:13.524338+00:00",
        "meta_object_name": "GPS BIIR-8  (PRN 16)",
        "meta_object_id": "2003-005A",
        "meta_epoch": "2025-12-03T11:06:59.696352",
        "meta_mean_motion": 2.00571298,
        "meta_eccentricity": 0.0147085,
        "meta_inclination": 54.9258,
        "meta_ra_of_asc_node": 222.7473,
        "meta_arg_of_pericenter": 51.6706,
        "meta_mean_anomaly": 163.3527,
        "meta_ephemeris_type": 0,
        "meta_classification_type": "U",
        "meta_norad_cat_id": 27663,
        "meta_element_set_no": 999,
        "meta_rev_at_epoch": 16738,
        "meta_bstar": 0,
        "meta_mean_motion_dot": 6.1e-07,
        "meta_mean_motion_ddot": 0,
        "tle_line1": "1 27663U 03005A   25337.46319093  .00000061  00000+0  00000+0 0  9992",
        "tle_line2": "2 27663  54.9258 222.7473 0147085  51.6706 163.3527  2.00571298167382"
      },
      "geometry": {
        "type": "Point",
        "coordinates": [
          -40.33397781943342,
          54.73170965297973
        ]
      }
    },
    {
      "type": "Feature",
      "properties": {
        "norad_id": 28190,
        "name": "GPS BIIR-11 (PRN 19)",
        "group": "gnss",
        "lat": -51.6718376876469,
        "lon": 165.78060213698112,
        "alt_km": 20163.927912601604,
        "timestamp": "2025-12-05T18:53:13.524352+00:00",
        "meta_object_name": "GPS BIIR-11 (PRN 19)",
        "meta_object_id": "2004-009A",
        "meta_epoch": "2025-12-04T10:34:11.811072",
        "meta_mean_motion": 2.00560931,
        "meta_eccentricity": 0.0108199,
        "meta_inclination": 54.9938,
        "meta_ra_of_asc_node": 283.5535,
        "meta_arg_of_pericenter": 167.4954,
        "meta_mean_anomaly": 192.2151,
        "meta_ephemeris_type": 0,
        "meta_classification_type": "U",
        "meta_norad_cat_id": 28190,
        "meta_element_set_no": 999,
        "meta_rev_at_epoch": 15903,
        "meta_bstar": 0,
        "meta_mean_motion_dot": -4.2e-07,
        "meta_mean_motion_ddot": 0,
        "tle_line1": "1 28190U 04009A   25338.44041448 -.00000042  00000+0  00000+0 0  9998",
        "tle_line2": "2 28190  54.9938 283.5535 0108199 167.4954 192.2151  2.00560931159030"
      },
      "geometry": {
        "type": "Point",
        "coordinates": [
          165.78060213698112,
          -51.6718376876469
        ]
      }
    },
    {
      "type": "Feature",
      "properties": {
        "norad_id": 28474,
        "name": "GPS BIIR-13 (PRN 02)",
        "group": "gnss",
        "lat": -37.623765023047234,
        "lon": -59.67767373762872,
        "alt_km": 19733.48452003604,
        "timestamp": "2025-12-05T18:53:13.524365+00:00",
        "meta_object_name": "GPS BIIR-13 (PRN 02)",
        "meta_object_id": "2004-045A",
        "meta_epoch": "2025-12-04T09:39:02.075040",
        "meta_mean_motion": 2.00568937,
        "meta_eccentricity": 0.0170587,
        "meta_inclination": 55.2447,
        "meta_ra_of_asc_node": 332.7413,
        "meta_arg_of_pericenter": 308.8874,
        "meta_mean_anomaly": 83.0394,
        "meta_ephemeris_type": 0,
        "meta_classification_type": "U",
        "meta_norad_cat_id": 28474,
        "meta_element_set_no": 999,
        "meta_rev_at_epoch": 15452,
        "meta_bstar": 0,
        "meta_mean_motion_dot": -7.2e-07,
        "meta_mean_motion_ddot": 0,
        "tle_line1": "1 28474U 04045A   25338.40210735 -.00000072  00000+0  00000+0 0  9999",
        "tle_line2": "2 28474  55.2447 332.7413 0170587 308.8874  83.0394  2.00568937154527"
      },
      "geometry": {
        "type": "Point",
        "coordinates": [
          -59.67767373762872,
          -37.623765023047234
        ]
      }
    },
    {
      "type": "Feature",
      "properties": {
        "norad_id": 28874,
        "name": "GPS BIIRM-1 (PRN 17)",
        "group": "gnss",
        "lat": -55.05600969800948,
        "lon": -169.4146584481849,
        "alt_km": 19865.516856546146,
        "timestamp": "2025-12-05T18:53:13.524379+00:00",
        "meta_object_name": "GPS BIIRM-1 (PRN 17)",
        "meta_object_id": "2005-038A",
        "meta_epoch": "2025-12-02T16:12:27.400896",
        "meta_mean_motion": 2.00548806,
        "meta_eccentricity": 0.01328204,
        "meta_inclination": 55.0411,
        "meta_ra_of_asc_node": 281.1063,
        "meta_arg_of_pericenter": 293.4087,
        "meta_mean_anomaly": 250.3584,
        "meta_ephemeris_type": 0,
        "meta_classification_type": "U",
        "meta_norad_cat_id": 28874,
        "meta_element_set_no": 999,
        "meta_rev_at_epoch": 14789,
        "meta_bstar": 0,
        "meta_mean_motion_dot": -4.3e-07,
        "meta_mean_motion_ddot": 0,
        "tle_line1": "1 28874U 05038A   25336.67531714 -.00000043  00000+0  00000+0 0  9994",
        "tle_line2": "2 28874  55.0411 281.1063 0132820 293.4087 250.3584  2.00548806147896"
      },
      "geometry": {
        "type": "Point",
        "coordinates": [
          -169.4146584481849,
          -55.05600969800948
        ]
      }
    }
  ]
}